{"type": "FeatureCollection", "features": [ {"type": "Feature", "properties": {"norad_id": 66906, "name": "1998-067XS", "group": "last-30-days", "lat": 50.61904398039087, "lon": -138.0292507624478, "alt_km": 408.5834489663257, "timestamp": "2025-12-17T21:39:44.492875+00:00", "meta": {"OBJECT_NAME": "1998-067XS", "OBJECT_ID": "1998-067XS", "EPOCH": "2025-12-17T13:30:08.269344", "MEAN_MOTION": 15.50826829, "ECCENTRICITY": 0.00031669, "INCLINATION": 51.631, "RA_OF_ASC_NODE": 118.4957, "ARG_OF_PERICENTER": 225.2923, "MEAN_ANOMALY": 134.7808, "EPHEMERIS_TYPE": 0, "CLASSIFICATION_TYPE": "U", "NORAD_CAT_ID": 66906, "ELEMENT_SET_NO": 999, "REV_AT_EPOCH": 236, "BSTAR": 0.00042205849, "MEAN_MOTION_DOT": 0.00024423, "MEAN_MOTION_DDOT": 0}, "tle": {"line1": "1 66906U 98067XS  25351.56259571  .00024423  00000+0  42206-3 0  9994", "line2": "2 66906  51.6310 118.4957 0003166 225.2923 134.7808 15.50826829  2369"}}, "geometry": {"type": "Point", "coordinates": [-138.0292507624478, 50.61904398039087]}}, {"type": "Feature", "properties": {"norad_id": 66907, "name": "1998-067XT", "group": "last-30-days", "lat": 33.80411613283903, "lon": -95.30341528962668, "alt_km": 407.68645687553453, "timestamp": "2025-12-17T21:39:44.492887+00:00", "meta": {"OBJECT_NAME": "1998-067XT", "OBJECT_ID": "1998-067XT", "EPOCH": "2025-12-17T14:54:10.641600", "MEAN_MOTION": 15.52051532, "ECCENTRICITY": 0.00040131, "INCLINATION": 51.6305, "RA_OF_ASC_NODE": 118.1347, "ARG_OF_PERICENTER": 256.0378, "MEAN_ANOMALY": 104.0166, "EPHEMERIS_TYPE": 0, "CLASSIFICATION_TYPE": "U", "NORAD_CAT_ID": 66907, "ELEMENT_SET_NO": 999, "REV_AT_EPOCH": 237, "BSTAR": 0.0008696116, "MEAN_MOTION_DOT": 0.00053299, "MEAN_MOTION_DDOT": 0}, "tle": {"line1": "1 66907U 98067XT  25351.62095650  .00053299  00000+0  86961-3 0  9997", "line2": "2 66907  51.6305 118.1347 0004013 256.0378 104.0166 15.52051532  2373"}}, "geometry": {"type": "Point", "coordinates": [-95.30341528962668, 33.80411613283903]}}, {"type": "Feature", "properties": {"norad_id": 66908, "name": "1998-067XU", "group": "last-30-days", "lat": 31.415245990955288, "lon": -92.21457952373899, "alt_km": 407.6412864738277, "timestamp": "2025-12-17T21:39:44.492896+00:00", "meta": {"OBJECT_NAME": "1998-067XU", "OBJECT_ID": "1998-067XU", "EPOCH": "2025-12-17T13:20:34.724544", "MEAN_MOTION": 15.52141962, "ECCENTRICITY": 0.0004125, "INCLINATION": 51.6303, "RA_OF_ASC_NODE": 118.4505, "ARG_OF_PERICENTER": 254.9068, "MEAN_ANOMALY": 105.1466, "EPHEMERIS_TYPE": 0, "CLASSIFICATION_TYPE": "U", "NORAD_CAT_ID": 66908, "ELEMENT_SET_NO": 999, "REV_AT_EPOCH": 236, "BSTAR": 0.00086664567, "MEAN_MOTION_DOT": 0.0005329, "MEAN_MOTION_DDOT": 0}, "tle": {"line1": "1 66908U 98067XU  25351.55595746  .00053290  00000+0  86665-3 0  9993", "line2": "2 66908  51.6303 118.4505 0004125 254.9068 105.1466 15.52141962  2369"}}, "geometry": {"type": "Point", "coordinates": [-92.21457952373899, 31.415245990955288]}}, {"type": "Feature", "properties": {"norad_id": 66909, "name": "SILVERSAT", "group": "last-30-days", "lat": 28.405194964566157, "lon": -88.65344743005689, "alt_km": 407.57336467063396, "timestamp": "2025-12-17T21:39:44.492905+00:00", "meta": {"OBJECT_NAME": "SILVERSAT", "OBJECT_ID": "1998-067XV", "EPOCH": "2025-12-17T14:52:13.127232", "MEAN_MOTION": 15.5228671, "ECCENTRICITY": 0.00039762, "INCLINATION": 51.6309, "RA_OF_ASC_NODE": 118.1253, "ARG_OF_PERICENTER": 257.1224, "MEAN_ANOMALY": 102.9322, "EPHEMERIS_TYPE": 0, "CLASSIFICATION_TYPE": "U", "NORAD_CAT_ID": 66909, "ELEMENT_SET_NO": 999, "REV_AT_EPOCH": 237, "BSTAR": 0.0009399615, "MEAN_MOTION_DOT": 0.00058177, "MEAN_MOTION_DDOT": 0}, "tle": {"line1": "1 66909U 98067XV  25351.61959638  .00058177  00000+0  93996-3 0  9999", "line2": "2 66909  51.6309 118.1253 0003976 257.1224 102.9322 15.52286710  2373"}}, "geometry": {"type": "Point", "coordinates": [-88.65344743005689, 28.405194964566157]}}, {"type": "Feature", "properties": {"norad_id": 66910, "name": "1998-067XW", "group": "last-30-days", "lat": 21.23293710147777, "lon": -81.23185148423231, "alt_km": 407.03760958558996, "timestamp": "2025-12-17T21:39:44.492914+00:00", "meta": {"OBJECT_NAME": "1998-067XW", "OBJECT_ID": "1998-067XW", "EPOCH": "2025-12-17T14:49:41.645568", "MEAN_MOTION": 15.52327753, "ECCENTRICITY": 0.00045296, "INCLINATION": 51.6302, "RA_OF_ASC_NODE": 118.1137, "ARG_OF_PERICENTER": 233.5237, "MEAN_ANOMALY": 126.5336, "EPHEMERIS_TYPE": 0, "CLASSIFICATION_TYPE": "U", "NORAD_CAT_ID": 66910, "ELEMENT_SET_NO": 999, "REV_AT_EPOCH": 237, "BSTAR": 0.00083127757, "MEAN_MOTION_DOT": 0.00051432, "MEAN_MOTION_DDOT": 0}, "tle": {"line1": "1 66910U 98067XW  25351.61784312  .00051432  00000+0  83128-3 0  9999", "line2": "2 66910  51.6302 118.1137 0004529 233.5237 126.5336 15.52327753  2376"}}, "geometry": {"type": "Point", "coordinates": [-81.23185148423231, 21.23293710147777]}}, {"type": "Feature", "properties": {"norad_id": 66911, "name": "1998-067XX", "group": "last-30-days", "lat": 13.6695105042164, "lon": -74.43323968337066, "alt_km": 406.8557795128345, "timestamp": "2025-12-17T21:39:44.492923+00:00", "meta": {"OBJECT_NAME": "1998-067XX", "OBJECT_ID": "1998-067XX", "EPOCH": "2025-12-17T14:47:13.814304", "MEAN_MOTION": 15.52703134, "ECCENTRICITY": 0.00042191, "INCLINATION": 51.6305, "RA_OF_ASC_NODE": 118.1027, "ARG_OF_PERICENTER": 237.6725, "MEAN_ANOMALY": 122.3857, "EPHEMERIS_TYPE": 0, "CLASSIFICATION_TYPE": "U", "NORAD_CAT_ID": 66911, "ELEMENT_SET_NO": 999, "REV_AT_EPOCH": 236, "BSTAR": 0.00097424314, "MEAN_MOTION_DOT": 0.00061259, "MEAN_MOTION_DDOT": 0}, "tle": {"line1": "1 66911U 98067XX  25351.61613211  .00061259  00000+0  97424-3 0  9991", "line2": "2 66911  51.6305 118.1027 0004219 237.6725 122.3857 15.52703134  2363"}}, "geometry": {"type": "Point", "coordinates": [-74.43323968337066, 13.6695105042164]}}, {"type": "Feature", "properties": {"norad_id": 66912, "name": "1998-067XY", "group": "last-30-days", "lat": 41.531694060200685, "lon": -107.8071714471465, "alt_km": 408.09137753125196, "timestamp": "2025-12-17T21:39:44.492934+00:00", "meta": {"OBJECT_NAME": "1998-067XY", "OBJECT_ID": "1998-067XY", "EPOCH": "2025-12-17T14:57:17.441856", "MEAN_MOTION": 15.51610619, "ECCENTRICITY": 0.00041707, "INCLINATION": 51.6305, "RA_OF_ASC_NODE": 118.1486, "ARG_OF_PERICENTER": 250.1115, "MEAN_ANOMALY": 109.9425, "EPHEMERIS_TYPE": 0, "CLASSIFICATION_TYPE": "U", "NORAD_CAT_ID": 66912, "ELEMENT_SET_NO": 999, "REV_AT_EPOCH": 236, "BSTAR": 0.00073122967, "MEAN_MOTION_DOT": 0.00043985, "MEAN_MOTION_DDOT": 0}, "tle": {"line1": "1 66912U 98067XY  25351.62311854  .00043985  00000+0  73123-3 0  9997", "line2": "2 66912  51.6305 118.1486 0004170 250.1115 109.9425 15.51610619  2368"}}, "geometry": {"type": "Point", "coordinates": [-107.8071714471465, 41.531694060200685]}}, {"type": "Feature", "properties": {"norad_id": 66913, "name": "2025-284A", "group": "last-30-days", "lat": 7.701098560390121, "lon": -58.079233690528135, "alt_km": 504.93406146156667, "timestamp": "2025-12-17T21:39:44.492943+00:00", "meta": {"OBJECT_NAME": "2025-284A", "OBJECT_ID": "2025-284A", "EPOCH": "2025-12-17T14:34:20.155008", "MEAN_MOTION": 15.16449712, "ECCENTRICITY": 0.00203354, "INCLINATION": 80.4051, "RA_OF_ASC_NODE": 123.6045, "ARG_OF_PERICENTER": 158.6655, "MEAN_ANOMALY": 201.5424, "EPHEMERIS_TYPE": 0, "CLASSIFICATION_TYPE": "U", "NORAD_CAT_ID": 66913, "ELEMENT_SET_NO": 999, "REV_AT_EPOCH": 186, "BSTAR": 0.00042531494, "MEAN_MOTION_DOT": 8.337e-05, "MEAN_MOTION_DDOT": 0}, "tle": {"line1": "1 66913U 25284A   25351.60717772  .00008337  00000+0  42531-3 0  9997", "line2": "2 66913  80.4051 123.6045 0020335 158.6655 201.5424 15.16449712  1868"}}, "geometry": {"type": "Point", "coordinates": [-58.079233690528135, 7.701098560390121]}}, {"type": "Feature", "properties": {"norad_id": 66914, "name": "2025-284B", "group": "last-30-days", "lat": -17.229790376297633, "lon": -53.770987861248955, "alt_km": 509.01528054783466, "timestamp": "2025-12-17T21:39:44.492952+00:00", "meta": {"OBJECT_NAME": "2025-284B", "OBJECT_ID": "2025-284B", "EPOCH": "2025-12-16T06:51:11.417184", "MEAN_MOTION": 15.18985981, "ECCENTRICITY": 0.00081793, "INCLINATION": 80.4045, "RA_OF_ASC_NODE": 125.2713, "ARG_OF_PERICENTER": 234.9626, "MEAN_ANOMALY": 125.0834, "EPHEMERIS_TYPE": 0, "CLASSIFICATION_TYPE": "U", "NORAD_CAT_ID": 66914, "ELEMENT_SET_NO": 999, "REV_AT_EPOCH": 166, "BSTAR": 0.00038444995, "MEAN_MOTION_DOT": 8.068e-05, "MEAN_MOTION_DDOT": 0}, "tle": {"line1": "1 66914U 25284B   25350.28554881  .00008068  00000+0  38445-3 0  9991", "line2": "2 66914  80.4045 125.2713 0008179 234.9626 125.0834 15.18985981  1668"}}, "geometry": {"type": "Point", "coordinates": [-53.770987861248955, -17.229790376297633]}}, {"type": "Feature", "properties": {"norad_id": 66915, "name": "HULIANWANG DIGUI-105", "group": "last-30-days", "lat": 11.331760380262157, "lon": 105.93294936694178, "alt_km": 878.3842123445911, "timestamp": "2025-12-17T21:39:44.492963+00:00", "meta": {"OBJECT_NAME": "HULIANWANG DIGUI-105", "OBJECT_ID": "2025-285A", "EPOCH": "2025-12-17T14:45:26.794080", "MEAN_MOTION": 14.03717042, "ECCENTRICITY": 0.00079987, "INCLINATION": 50.0057, "RA_OF_ASC_NODE": 97.4203, "ARG_OF_PERICENTER": 298.9758, "MEAN_ANOMALY": 61.0344, "EPHEMERIS_TYPE": 0, "CLASSIFICATION_TYPE": "U", "NORAD_CAT_ID": 66915, "ELEMENT_SET_NO": 999, "REV_AT_EPOCH": 159, "BSTAR": 9.1187766e-05, "MEAN_MOTION_DOT": -7e-08, "MEAN_MOTION_DDOT": 0}, "tle": {"line1": "1 66915U 25285A   25351.61489345 -.00000007  00000+0  91188-4 0  9993", "line2": "2 66915  50.0057  97.4203 0007998 298.9758  61.0344 14.03717042  1594"}}, "geometry": {"type": "Point", "coordinates": [105.93294936694178, 11.331760380262157]}}]}